{
    "links": {
        "self": "http://www.neowsapp.com/rest/v1/neo/3829431?api_key=iIulBulltgU6a56xZRHN4H3l9WmuAYTsLGpBGhQ2"
    },
    "id": "3829431",
    "neo_reference_id": "3829431",
    "name": "(2018 RX5)",
    "designation": "2018 RX5",
    "nasa_jpl_url": "http://ssd.jpl.nasa.gov/sbdb.cgi?sstr=3829431",
    "absolute_magnitude_h": 23.8,
    "estimated_diameter": {
        "kilometers": {
            "estimated_diameter_min": 0.046190746,
            "estimated_diameter_max": 0.1032856481
        },
        "meters": {
            "estimated_diameter_min": 46.1907460282,
            "estimated_diameter_max": 103.2856480504
        },
        "miles": {
            "estimated_diameter_min": 0.0287015901,
            "estimated_diameter_max": 0.0641787064
        },
        "feet": {
            "estimated_diameter_min": 151.544447199,
            "estimated_diameter_max": 338.8636855496
        }
    },
    "is_potentially_hazardous_asteroid": false,
    "close_approach_data": [
        {
            "close_approach_date": "2018-09-14",
            "close_approach_date_full": "2018-Sep-14 16:51",
            "epoch_date_close_approach": 1536943860000,
            "relative_velocity": {
                "kilometers_per_second": "19.8368835832",
                "kilometers_per_hour": "71412.7808995412",
                "miles_per_hour": "44373.1248872733"
            },
            "miss_distance": {
                "astronomical": "0.1344885622",
                "lunar": "52.3160506958",
                "kilometers": "20119202.444482514",
                "miles": "12501492.6970821332"
            },
            "orbiting_body": "Earth"
        }
    ],
    "orbital_data": {
        "orbit_id": "3",
        "orbit_determination_date": "2018-09-28 06:30:20",
        "first_observation_date": "2018-09-12",
        "last_observation_date": "2018-09-14",
        "data_arc_in_days": 2,
        "observations_used": 29,
        "orbit_uncertainty": "9",
        "minimum_orbit_intersection": ".119405",
        "jupiter_tisserand_invariant": "4.084",
        "epoch_osculation": "2458374.5",
        "eccentricity": ".4902679575958476",
        "semi_major_axis": "1.588942007330389",
        "inclination": "32.85544661977402",
        "ascending_node_longitude": "343.2520327492375",
        "orbital_period": "731.5777643513298",
        "perihelion_distance": ".8099346546582731",
        "perihelion_argument": "86.02868596405135",
        "aphelion_distance": "2.367949360002506",
        "perihelion_time": "2458437.070368374051",
        "mean_anomaly": "329.2099272117285",
        "mean_motion": ".4920871266764132",
        "equinox": "J2000",
        "orbit_class": {
            "orbit_class_type": "APO",
            "orbit_class_description": "Near-Earth asteroid orbits which cross the Earth’s orbit similar to that of 1862 Apollo",
            "orbit_class_range": "a (semi-major axis) > 1.0 AU; q (perihelion) < 1.017 AU"
        }
    },
    "is_sentry_object": false
}